[{"OBJECT_NAME":"SENTINEL-2A","OBJECT_ID":"2015-028A","EPOCH":"2026-02-25T04:19:12.423360","MEAN_MOTION":14.30192923,"ECCENTRICITY":0.00543683,"INCLINATION":98.5024,"RA_OF_ASC_NODE":132.8928,"ARG_OF_PERICENTER":194.7437,"MEAN_ANOMALY":165.2162,"EPHEMERIS_TYPE":0,"CLASSIFICATION_TYPE":"U","NORAD_CAT_ID":40697,"ELEMENT_SET_NO":999,"REV_AT_EPOCH":55771,"BSTAR":7.6852184e-5,"MEAN_MOTION_DOT":1.59e-6,"MEAN_MOTION_DDOT":0},{"OBJECT_NAME":"OPS 8364 (DMSP 5B F4)","OBJECT_ID":"1973-054A","EPOCH":"2026-03-09T14:58:49.414656","MEAN_MOTION":14.33636422,"ECCENTRICITY":0.0025212,"INCLINATION":98.5808,"RA_OF_ASC_NODE":297.2562,"ARG_OF_PERICENTER":331.8423,"MEAN_ANOMALY":28.1396,"EPHEMERIS_TYPE":0,"CLASSIFICATION_TYPE":"U","NORAD_CAT_ID":6787,"ELEMENT_SET_NO":999,"REV_AT_EPOCH":73750,"BSTAR":0.00014371,"MEAN_MOTION_DOT":3.55e-6,"MEAN_MOTION_DDOT":0}]
